satname,norad_id,inclination_deg,eccentricity,mean_motion_rev_per_day,perigee_km,apogee_km,l1,l2
STARLINK-1540,46051,53.1582,0.0001275,15.30216403,474.29229731106807,476.03988959989874,1 46051U 20055AA  26126.61812053  .00007554  00000+0  26678-3 0  9993,2 46051  53.1582 204.7717 0001275  78.8362 281.2782 15.30216403317959
STARLINK-1541,46052,53.159,0.0001601,15.7402504,346.33021569939774,348.4837348802848,1 46052U 20055AB  26127.00002315 -.00171370  00000+0 -11981-2 0  9990,2 46052  53.1590 197.8146 0001601  55.6908  54.8240 15.74025040  5780
STARLINK-1543,46053,53.1596,0.0001616,15.3172212,469.5672895833259,471.78082531709424,1 46053U 20055AC  26126.20732035  .00009370  00000+0  31311-3 0  9999,2 46053  53.1596 206.5858 0001616  57.3008 302.8149 15.31722120317888
STARLINK-1548,46054,53.1591,0.0001282,15.31727987,469.77855336976063,471.5345840407772,1 46054U 20055AD  26126.61280660  .00009243  00000+0  30897-3 0  9994,2 46054  53.1591 204.7731 0001282  79.5389 280.5757 15.31727987317941
STARLINK-1554,46055,53.1573,0.0001307,15.31673944,469.9225095317943,471.71282628198514,1 46055U 20055AE  26127.00002315  .00026625  00000+0  86739-3 0  9997,2 46055  53.1573 202.9150 0001307  93.8699 345.4839 15.31673944  5767
STARLINK-1564,46058,53.159,0.0001311,15.30211137,474.2833464496143,476.0802866433123,1 46058U 20055AH  26126.61714838  .00003738  00000+0  13823-3 0  9990,2 46058  53.1590 205.3018 0001311  78.2973 281.8175 15.30211137317938
STARLINK-1570,46059,53.158,9.65e-05,15.31680586,470.13694574593774,471.45879017545485,1 46059U 20055AJ  26126.62212617 -.00004304  00000+0 -12709-3 0  9994,2 46059  53.1580 204.5545 0000965  59.7347 300.3749 15.31680586317907
STARLINK-1572,46060,53.1582,0.0001371,15.30196472,474.28600739870944,476.165199424564,1 46060U 20055AK  26126.92472617 -.00001368  00000+0 -34070-4 0  9990,2 46060  53.1582 203.6192 0001371  95.0649 265.0509 15.30196472317950
STARLINK-1573,46061,53.1577,0.0001126,15.31714108,469.9267615202816,471.4691191488446,1 46061U 20055AL  26126.73862072  .00001667  00000+0  65452-4 0  9996,2 46061  53.1577 203.9807 0001126  97.7756 262.3373 15.31714108317960
STARLINK-1577,46063,53.1582,9.87e-05,15.3171988,470.00475631066547,471.3567129314788,1 46063U 20055AN  26126.50558380  .00007241  00000+0  24473-3 0  9998,2 46063  53.1582 205.0602 0000987  79.1370 280.9743 15.31719880317929
STARLINK-1583,46064,53.1583,0.0001773,15.30240108,473.88023868676373,476.3103948662929,1 46064U 20055AP  26126.62760933  .00014142  00000+0  48808-3 0  9997,2 46064  53.1583 204.7488 0001773  69.2243 290.8947 15.30240108317930
STARLINK-1536,46070,53.1597,0.0001162,15.31724409,469.87140318102865,471.46306528506375,1 46070U 20055AV  26126.45566925  .00004933  00000+0  17049-3 0  9990,2 46070  53.1597 193.1794 0001162  88.4083 271.7051 15.31724409318083
STARLINK-1542,46073,53.1419,0.0001185,15.28001675,480.97383881052156,482.5996407368475,1 46073U 20055AY  26127.00002315  .00106702  00000+0  38118-2 0  9999,2 46073  53.1419 193.5027 0001185  40.9401   6.3968 15.28001675  5805
STARLINK-1549,46074,53.0512,0.0003496,15.27188382,481.8229110900156,486.6210724970779,1 46074U 20055AZ  26126.55983093  .00023844  00000+0  89280-3 0  9992,2 46074  53.0512 192.3843 0003496  12.4628 347.6456 15.27188382318084
STARLINK-1551,46075,53.1588,0.0001243,15.30217916,474.3097109816372,476.0134410076298,1 46075U 20055BA  26126.60808664  .00007963  00000+0  28052-3 0  9993,2 46075  53.1588 192.0366 0001243  82.0721 278.0420 15.30217916318102
STARLINK-1552,46076,53.1585,0.0001526,15.30211466,474.1350179223564,476.22665052536104,1 46076U 20055BB  26126.69024438  .00005616  00000+0  20153-3 0  9999,2 46076  53.1585 191.5687 0001526  83.3305 276.7869 15.30211466318102
STARLINK-1559,46077,53.0219,0.000282,15.35431676,457.7103460662038,461.56685150391786,1 46077U 20055BC  26126.53566825  .00038263  00000+0  11010-2 0  9999,2 46077  53.0219 163.4490 0002820 356.5613   3.5369 15.35431676318452
STARLINK-1566,46079,53.1606,0.0001301,15.31720142,469.788922544044,471.5709847153785,1 46079U 20055BE  26126.56777586  .00002051  00000+0  77787-4 0  9993,2 46079  53.1606 192.0301 0001301  88.1084 272.0066 15.31720142318101
STARLINK-1568,46080,53.059,0.0004596,15.51486864,409.2632240185949,415.50507105741053,1 46080U 20055BF  26126.95259279  .00035226  00000+0  59106-3 0  9996,2 46080  53.0590 113.9191 0004596   0.9821 359.1196 15.51486864319220
STARLINK-1578,46082,53.159,0.0001504,15.31686921,469.7489063576095,471.80906028539357,1 46082U 20055BH  26127.00002315  .00048561  00000+0  15671-2 0  9996,2 46082  53.1590 190.5358 0001504  52.6953 147.7800 15.31686921  5785
STARLINK-1579,46083,53.1603,0.0001397,15.3170946,469.75501142629764,471.66857977979,1 46083U 20055BJ  26126.55846813  .00001341  00000+0  54946-4 0  9990,2 46083  53.1603 192.1265 0001397  68.8579 291.2572 15.31709460318095
STARLINK-1593,46119,53.0203,0.0010133,16.39515796,160.45859328348888,173.72315209027693,1 46119U 20057C   26125.99433002  .09196762  12338-4  69401-3 0  9995,2 46119  53.0203 338.4355 0010133 265.9717  94.0170 16.39515796317095
STARLINK-1622,46128,53.019,0.0002913,15.75795449,340.4109078360052,344.3262743933883,1 46128U 20057M   26127.00002315  .00028950  00000+0  18773-3 0  9996,2 46128  53.0190 295.8162 0002913 326.8384 297.6292 15.75795449  5887
STARLINK-1623,46129,53.0461,6.98e-05,15.68704483,362.13518821218986,363.0761958919993,1 46129U 20057N   26126.81710624  .00080840  00000+0  69369-3 0  9997,2 46129  53.0461 332.9132 0000698 211.9579 148.1395 15.68704483315997
STARLINK-1624,46130,53.0325,0.0007776,15.93751288,286.6095225471272,296.98260244592166,1 46130U 20057P   26127.00002315  .00396029  72410-4  10689-2 0  9990,2 46130  53.0325 300.3266 0007776 262.0563 267.6393 15.93751288  6017
STARLINK-1596,46141,53.0386,0.0002649,15.54382794,402.15079053730824,405.74393883371795,1 46141U 20057AA  26126.92525786  .00085134  00000+0  12692-2 0  9993,2 46141  53.0386 311.4809 0002649 257.3539 102.7175 15.54382794316308
STARLINK-1597,46142,53.045,0.0002698,15.68447314,361.5236471389653,365.1613494762523,1 46142U 20057AB  26126.91526162  .00073660  00000+0  63970-3 0  9999,2 46142  53.0450  12.1076 0002698  63.2303 296.8989 15.68447314315446
STARLINK-1606,46144,53.0401,0.0003583,15.78483277,332.33212134653877,337.14256710160953,1 46144U 20057AD  26127.00002315  .00118024  00000+0  66115-3 0  9999,2 46144  53.0401 327.6785 0003583 205.4166   4.2638 15.78483277  5937
